{
  "type": "FeatureCollection",
  "name": "SlopeSense \u2014 Cypress selected downhill runs",
  "source": "\u00a9 OpenStreetMap contributors",
  "license": "ODbL 1.0",
  "features": [
    {
      "type": "Feature",
      "id": "cypress-panorama",
      "properties": {
        "id": "cypress-panorama",
        "name": "Panorama",
        "resortId": "cypress",
        "difficulty": "green",
        "lengthMeters": 1631,
        "grooming": "unknown",
        "source": "OpenStreetMap",
        "metadata": {
          "osmWayIds": [
            "40040373",
            "1011858367"
          ],
          "osmDifficultyValues": [
            "easy"
          ],
          "osmGroomingValues": [],
          "osmTags": [
            {
              "lit": "yes",
              "name": "Panorama",
              "piste:difficulty": "easy",
              "piste:type": "downhill"
            },
            {
              "lit": "yes",
              "name": "Panorama",
              "oneway": "no",
              "piste:difficulty": "easy",
              "piste:type": "downhill"
            }
          ],
          "snapshotDate": "2026-10-03"
        }
      },
      "geometry": {
        "type": "MultiLineString",
        "coordinates": [
          [
            [
              -123.2133796,
              49.3915194
            ],
            [
              -123.213177,
              49.3914367
            ],
            [
              -123.212192,
              49.3914404
            ],
            [
              -123.2117955,
              49.3914527
            ],
            [
              -123.2116305,
              49.3914441
            ],
            [
              -123.2114088,
              49.3913885
            ],
            [
              -123.2110372,
              49.3912122
            ],
            [
              -123.2106875,
              49.3909913
            ],
            [
              -123.2104082,
              49.3908665
            ],
            [
              -123.2100164,
              49.3907485
            ],
            [
              -123.2093808,
              49.390592
            ],
            [
              -123.209148,
              49.3905147
            ],
            [
              -123.2087038,
              49.3904032
            ],
            [
              -123.208495,
              49.3903237
            ],
            [
              -123.2082813,
              49.3902045
            ],
            [
              -123.2080505,
              49.3899789
            ],
            [
              -123.2077474,
              49.3897076
            ],
            [
              -123.207414,
              49.3893229
            ],
            [
              -123.2070655,
              49.3891996
            ],
            [
              -123.2068382,
              49.3891996
            ],
            [
              -123.2065192,
              49.389366
            ],
            [
              -123.2064584,
              49.3895851
            ],
            [
              -123.2064313,
              49.3901399
            ],
            [
              -123.2063286,
              49.3902954
            ],
            [
              -123.2064166,
              49.3908426
            ],
            [
              -123.2063122,
              49.3913091
            ],
            [
              -123.2067631,
              49.3919521
            ],
            [
              -123.2070862,
              49.3922857
            ],
            [
              -123.2079203,
              49.392747
            ],
            [
              -123.2080276,
              49.3928314
            ],
            [
              -123.208181,
              49.3929521
            ],
            [
              -123.2083387,
              49.3933065
            ],
            [
              -123.2083539,
              49.3937849
            ],
            [
              -123.2083328,
              49.3938448
            ],
            [
              -123.2082309,
              49.3940767
            ],
            [
              -123.2080771,
              49.394311
            ],
            [
              -123.2079716,
              49.3945884
            ],
            [
              -123.2072048,
              49.3950675
            ],
            [
              -123.2066801,
              49.3957018
            ],
            [
              -123.2065187,
              49.3958049
            ],
            [
              -123.2063526,
              49.3959139
            ],
            [
              -123.2060954,
              49.3960028
            ],
            [
              -123.2058397,
              49.3963212
            ],
            [
              -123.2058749,
              49.3966983
            ],
            [
              -123.2059179,
              49.3968691
            ],
            [
              -123.2059,
              49.3969109
            ],
            [
              -123.2058659,
              49.3970146
            ]
          ],
          [
            [
              -123.2058659,
              49.3970146
            ],
            [
              -123.2058944,
              49.3970987
            ],
            [
              -123.2059508,
              49.3971981
            ],
            [
              -123.2060118,
              49.3972499
            ],
            [
              -123.2060762,
              49.3972799
            ],
            [
              -123.206132,
              49.3972981
            ],
            [
              -123.2061845,
              49.3973043
            ],
            [
              -123.2062993,
              49.3972904
            ],
            [
              -123.2063519,
              49.3972743
            ],
            [
              -123.2063948,
              49.3972282
            ]
          ]
        ]
      }
    },
    {
      "type": "Feature",
      "id": "cypress-windjammer",
      "properties": {
        "id": "cypress-windjammer",
        "name": "Windjammer",
        "resortId": "cypress",
        "difficulty": "green",
        "lengthMeters": 558,
        "grooming": "unknown",
        "source": "OpenStreetMap",
        "metadata": {
          "osmWayIds": [
            "40040497"
          ],
          "osmDifficultyValues": [
            "easy"
          ],
          "osmGroomingValues": [],
          "osmTags": [
            {
              "lit": "yes",
              "name": "Windjammer",
              "piste:difficulty": "easy",
              "piste:type": "downhill"
            }
          ],
          "snapshotDate": "2026-10-03"
        }
      },
      "geometry": {
        "type": "LineString",
        "coordinates": [
          [
            -123.2063122,
            49.3913091
          ],
          [
            -123.2058659,
            49.3915278
          ],
          [
            -123.2056581,
            49.3916989
          ],
          [
            -123.205686,
            49.3920922
          ],
          [
            -123.2056744,
            49.3922967
          ],
          [
            -123.2056986,
            49.3923668
          ],
          [
            -123.2058647,
            49.3925478
          ],
          [
            -123.2059105,
            49.3926086
          ],
          [
            -123.2059731,
            49.3927122
          ],
          [
            -123.2060552,
            49.392875
          ],
          [
            -123.2060662,
            49.3929995
          ],
          [
            -123.2060268,
            49.3932615
          ],
          [
            -123.2061241,
            49.3936415
          ],
          [
            -123.2061651,
            49.3937358
          ],
          [
            -123.2062121,
            49.3938493
          ],
          [
            -123.2063363,
            49.3940894
          ],
          [
            -123.2064373,
            49.3942843
          ],
          [
            -123.2065039,
            49.3943733
          ],
          [
            -123.2064492,
            49.394704
          ],
          [
            -123.2064047,
            49.3951694
          ],
          [
            -123.2063506,
            49.3954111
          ],
          [
            -123.206315,
            49.3954869
          ],
          [
            -123.2062047,
            49.3957429
          ],
          [
            -123.2060954,
            49.3960028
          ]
        ]
      }
    },
    {
      "type": "Feature",
      "id": "cypress-collins",
      "properties": {
        "id": "cypress-collins",
        "name": "Collins",
        "resortId": "cypress",
        "difficulty": "green",
        "lengthMeters": 2186,
        "grooming": "unknown",
        "source": "OpenStreetMap",
        "metadata": {
          "osmWayIds": [
            "375889403",
            "1193663943"
          ],
          "osmDifficultyValues": [
            "easy"
          ],
          "osmGroomingValues": [],
          "osmTags": [
            {
              "lit": "yes",
              "name": "Collins",
              "piste:difficulty": "easy",
              "piste:type": "downhill"
            },
            {
              "lit": "yes",
              "name": "Collins",
              "piste:difficulty": "easy",
              "piste:type": "downhill"
            }
          ],
          "snapshotDate": "2026-10-03"
        }
      },
      "geometry": {
        "type": "MultiLineString",
        "coordinates": [
          [
            [
              -123.1947064,
              49.4043804
            ],
            [
              -123.1947255,
              49.404468
            ],
            [
              -123.1947949,
              49.4046492
            ],
            [
              -123.1944775,
              49.4047912
            ],
            [
              -123.1943918,
              49.404889
            ],
            [
              -123.1942857,
              49.4049937
            ],
            [
              -123.1941475,
              49.405016
            ],
            [
              -123.1940011,
              49.4049795
            ],
            [
              -123.193797,
              49.4047458
            ],
            [
              -123.1937001,
              49.4045359
            ],
            [
              -123.1936623,
              49.4044534
            ],
            [
              -123.1934713,
              49.4042097
            ],
            [
              -123.1932063,
              49.4040362
            ],
            [
              -123.1928174,
              49.4039018
            ],
            [
              -123.1923829,
              49.403722
            ],
            [
              -123.1922327,
              49.4036924
            ],
            [
              -123.1916191,
              49.4037353
            ],
            [
              -123.1912858,
              49.4038495
            ],
            [
              -123.1910315,
              49.4039503
            ],
            [
              -123.1909009,
              49.4040148
            ],
            [
              -123.1908176,
              49.4040559
            ],
            [
              -123.1905278,
              49.4041474
            ],
            [
              -123.19017,
              49.4042428
            ],
            [
              -123.1900034,
              49.4042613
            ],
            [
              -123.1896764,
              49.4042203
            ],
            [
              -123.1894186,
              49.4041385
            ],
            [
              -123.1892079,
              49.4040833
            ],
            [
              -123.1887493,
              49.4039979
            ],
            [
              -123.1886144,
              49.403914
            ],
            [
              -123.1884816,
              49.4036741
            ],
            [
              -123.188432,
              49.4035004
            ],
            [
              -123.1884695,
              49.4033642
            ],
            [
              -123.1886594,
              49.4032314
            ],
            [
              -123.188969,
              49.4030991
            ],
            [
              -123.1891262,
              49.4029866
            ],
            [
              -123.189257,
              49.4028504
            ],
            [
              -123.1893542,
              49.4026747
            ],
            [
              -123.1893903,
              49.4024575
            ],
            [
              -123.1894783,
              49.4022009
            ],
            [
              -123.1895121,
              49.4018547
            ],
            [
              -123.1894973,
              49.4014715
            ],
            [
              -123.1895754,
              49.401083
            ],
            [
              -123.1899028,
              49.4006766
            ],
            [
              -123.1902499,
              49.400295
            ],
            [
              -123.1905159,
              49.4000787
            ],
            [
              -123.1906932,
              49.3999762
            ],
            [
              -123.191309,
              49.3996218
            ],
            [
              -123.1918696,
              49.3992897
            ],
            [
              -123.1921475,
              49.3991781
            ],
            [
              -123.1928874,
              49.3988758
            ],
            [
              -123.1937315,
              49.398437
            ],
            [
              -123.1938069,
              49.3983983
            ],
            [
              -123.1942537,
              49.3982067
            ],
            [
              -123.1949772,
              49.3981001
            ],
            [
              -123.1957301,
              49.3980339
            ],
            [
              -123.1962271,
              49.3979559
            ],
            [
              -123.1963961,
              49.3979227
            ],
            [
              -123.1968162,
              49.3977677
            ],
            [
              -123.1974789,
              49.3976535
            ],
            [
              -123.1976379,
              49.3975891
            ],
            [
              -123.1979158,
              49.3974995
            ],
            [
              -123.1983059,
              49.3972184
            ],
            [
              -123.1983241,
              49.3972007
            ],
            [
              -123.1984645,
              49.3970709
            ],
            [
              -123.1986928,
              49.3968587
            ],
            [
              -123.1992178,
              49.3968683
            ],
            [
              -123.1998758,
              49.3968803
            ],
            [
              -123.2004398,
              49.3969726
            ],
            [
              -123.2009559,
              49.3971298
            ],
            [
              -123.2010238,
              49.3971505
            ],
            [
              -123.201151,
              49.3972034
            ],
            [
              -123.2012587,
              49.3972501
            ],
            [
              -123.2013719,
              49.3972815
            ],
            [
              -123.2014792,
              49.3972926
            ],
            [
              -123.2017103,
              49.3973013
            ],
            [
              -123.2020505,
              49.3972977
            ],
            [
              -123.2028049,
              49.3972385
            ],
            [
              -123.2032428,
              49.3971515
            ]
          ],
          [
            [
              -123.2032428,
              49.3971515
            ],
            [
              -123.2035829,
              49.397072
            ],
            [
              -123.2040439,
              49.3969206
            ]
          ]
        ]
      }
    },
    {
      "type": "Feature",
      "id": "cypress-crazy-raven",
      "properties": {
        "id": "cypress-crazy-raven",
        "name": "Crazy Raven",
        "resortId": "cypress",
        "difficulty": "blue",
        "lengthMeters": 575,
        "grooming": "unknown",
        "source": "OpenStreetMap",
        "metadata": {
          "osmWayIds": [
            "40040401"
          ],
          "osmDifficultyValues": [
            "intermediate"
          ],
          "osmGroomingValues": [],
          "osmTags": [
            {
              "name": "Crazy Raven",
              "piste:difficulty": "intermediate",
              "piste:type": "downhill"
            }
          ],
          "snapshotDate": "2026-10-03"
        }
      },
      "geometry": {
        "type": "LineString",
        "coordinates": [
          [
            -123.2063286,
            49.3902954
          ],
          [
            -123.2060484,
            49.390334
          ],
          [
            -123.2059704,
            49.3903448
          ],
          [
            -123.2056653,
            49.3902867
          ],
          [
            -123.205283,
            49.390467
          ],
          [
            -123.204833,
            49.3906005
          ],
          [
            -123.2040896,
            49.3907501
          ],
          [
            -123.2035374,
            49.3909025
          ],
          [
            -123.2029928,
            49.3909529
          ],
          [
            -123.202202,
            49.3910004
          ],
          [
            -123.2010425,
            49.3910386
          ],
          [
            -123.2002826,
            49.3909665
          ],
          [
            -123.1999663,
            49.3909481
          ],
          [
            -123.1994295,
            49.3907786
          ],
          [
            -123.1987344,
            49.3906475
          ]
        ]
      }
    },
    {
      "type": "Feature",
      "id": "cypress-horizon",
      "properties": {
        "id": "cypress-horizon",
        "name": "Horizon",
        "resortId": "cypress",
        "difficulty": "blue",
        "lengthMeters": 1365,
        "grooming": "unknown",
        "source": "OpenStreetMap",
        "metadata": {
          "osmWayIds": [
            "40040695",
            "61580889",
            "1193653063"
          ],
          "osmDifficultyValues": [
            "intermediate"
          ],
          "osmGroomingValues": [],
          "osmTags": [
            {
              "lit": "yes",
              "name": "Horizon",
              "piste:difficulty": "intermediate",
              "piste:type": "downhill"
            },
            {
              "lit": "yes",
              "name": "Horizon",
              "piste:difficulty": "intermediate",
              "piste:type": "downhill"
            },
            {
              "lit": "yes",
              "name": "Horizon",
              "piste:difficulty": "intermediate",
              "piste:type": "downhill"
            }
          ],
          "snapshotDate": "2026-10-03"
        }
      },
      "geometry": {
        "type": "MultiLineString",
        "coordinates": [
          [
            [
              -123.1947954,
              49.4041615
            ],
            [
              -123.1946949,
              49.404216
            ],
            [
              -123.1946118,
              49.4042073
            ],
            [
              -123.1944598,
              49.4041357
            ],
            [
              -123.1944244,
              49.4040197
            ],
            [
              -123.1945033,
              49.4037473
            ],
            [
              -123.1946309,
              49.4034604
            ],
            [
              -123.1948229,
              49.403188
            ],
            [
              -123.1959944,
              49.4030004
            ],
            [
              -123.1969609,
              49.4028458
            ],
            [
              -123.1975183,
              49.4026242
            ],
            [
              -123.1981106,
              49.4023061
            ],
            [
              -123.1983697,
              49.4023235
            ],
            [
              -123.1986955,
              49.4023456
            ],
            [
              -123.1991587,
              49.4024234
            ],
            [
              -123.1995633,
              49.4024912
            ],
            [
              -123.2000847,
              49.4023964
            ],
            [
              -123.200732,
              49.4020964
            ],
            [
              -123.2015596,
              49.402056
            ],
            [
              -123.2018013,
              49.402008
            ],
            [
              -123.2023074,
              49.4020902
            ],
            [
              -123.2027188,
              49.4019901
            ],
            [
              -123.2036154,
              49.4017002
            ],
            [
              -123.2038791,
              49.4015953
            ],
            [
              -123.2040938,
              49.4013913
            ]
          ],
          [
            [
              -123.2040938,
              49.4013913
            ],
            [
              -123.2044842,
              49.4010293
            ],
            [
              -123.2049145,
              49.4005215
            ],
            [
              -123.205067,
              49.4001834
            ],
            [
              -123.2049144,
              49.3998463
            ],
            [
              -123.2049669,
              49.3995758
            ]
          ],
          [
            [
              -123.2049669,
              49.3995758
            ],
            [
              -123.2048693,
              49.399346
            ],
            [
              -123.2047098,
              49.3989605
            ],
            [
              -123.2045873,
              49.3986615
            ],
            [
              -123.2044903,
              49.3983543
            ],
            [
              -123.2042734,
              49.3979773
            ],
            [
              -123.2040795,
              49.3976834
            ],
            [
              -123.2039558,
              49.3975089
            ],
            [
              -123.2039305,
              49.3972836
            ]
          ]
        ]
      }
    },
    {
      "type": "Feature",
      "id": "cypress-t-33",
      "properties": {
        "id": "cypress-t-33",
        "name": "T-33",
        "resortId": "cypress",
        "difficulty": "blue",
        "lengthMeters": 823,
        "grooming": "unknown",
        "source": "OpenStreetMap",
        "metadata": {
          "osmWayIds": [
            "40040711",
            "91327373"
          ],
          "osmDifficultyValues": [
            "intermediate"
          ],
          "osmGroomingValues": [],
          "osmTags": [
            {
              "lit": "yes",
              "name": "T-33",
              "piste:difficulty": "intermediate",
              "piste:type": "downhill"
            },
            {
              "lit": "yes",
              "name": "T-33",
              "piste:difficulty": "intermediate",
              "piste:type": "downhill"
            }
          ],
          "snapshotDate": "2026-10-03"
        }
      },
      "geometry": {
        "type": "MultiLineString",
        "coordinates": [
          [
            [
              -123.1964526,
              49.4101818
            ],
            [
              -123.1964642,
              49.4102362
            ],
            [
              -123.1965522,
              49.4102749
            ],
            [
              -123.1966246,
              49.4102749
            ],
            [
              -123.1966673,
              49.4102699
            ],
            [
              -123.1967126,
              49.4102472
            ],
            [
              -123.1967967,
              49.4101563
            ],
            [
              -123.1968031,
              49.4101185
            ],
            [
              -123.1968057,
              49.4101032
            ],
            [
              -123.1968135,
              49.4100569
            ],
            [
              -123.1968174,
              49.4100174
            ],
            [
              -123.1967876,
              49.4098852
            ],
            [
              -123.1967592,
              49.4097775
            ],
            [
              -123.1967954,
              49.4097127
            ],
            [
              -123.1968342,
              49.4096437
            ],
            [
              -123.1968665,
              49.4094964
            ],
            [
              -123.196961,
              49.409305
            ],
            [
              -123.1972358,
              49.409078
            ],
            [
              -123.1974491,
              49.4088811
            ],
            [
              -123.1977452,
              49.4086921
            ],
            [
              -123.1986669,
              49.4082229
            ],
            [
              -123.1987688,
              49.4081387
            ],
            [
              -123.1989166,
              49.4080503
            ],
            [
              -123.1993151,
              49.4077292
            ]
          ],
          [
            [
              -123.1993151,
              49.4077292
            ],
            [
              -123.1992184,
              49.4075391
            ],
            [
              -123.1985572,
              49.407159
            ],
            [
              -123.1982783,
              49.4069704
            ],
            [
              -123.1980138,
              49.4066066
            ],
            [
              -123.1972924,
              49.4064139
            ],
            [
              -123.196617,
              49.4061889
            ],
            [
              -123.196384,
              49.406112
            ],
            [
              -123.1962925,
              49.4060674
            ],
            [
              -123.1961428,
              49.405994
            ],
            [
              -123.1959432,
              49.4058499
            ],
            [
              -123.1956686,
              49.4057288
            ],
            [
              -123.1953524,
              49.4056295
            ],
            [
              -123.19529,
              49.4055585
            ],
            [
              -123.1953764,
              49.4053777
            ],
            [
              -123.1956933,
              49.4052238
            ]
          ]
        ]
      }
    },
    {
      "type": "Feature",
      "id": "cypress-shoreline",
      "properties": {
        "id": "cypress-shoreline",
        "name": "Shoreline",
        "resortId": "cypress",
        "difficulty": "black",
        "lengthMeters": 615,
        "grooming": "unknown",
        "source": "OpenStreetMap",
        "metadata": {
          "osmWayIds": [
            "40040377",
            "40040378"
          ],
          "osmDifficultyValues": [
            "advanced"
          ],
          "osmGroomingValues": [],
          "osmTags": [
            {
              "name": "Shoreline",
              "piste:difficulty": "advanced",
              "piste:type": "downhill"
            },
            {
              "name": "Shoreline",
              "piste:difficulty": "advanced",
              "piste:type": "downhill"
            }
          ],
          "snapshotDate": "2026-10-03"
        }
      },
      "geometry": {
        "type": "MultiLineString",
        "coordinates": [
          [
            [
              -123.2093854,
              49.3898735
            ],
            [
              -123.2092932,
              49.3896806
            ],
            [
              -123.2090267,
              49.3894618
            ],
            [
              -123.2080256,
              49.3889556
            ],
            [
              -123.2077411,
              49.3889546
            ],
            [
              -123.2072897,
              49.3888986
            ],
            [
              -123.2068227,
              49.3889368
            ]
          ],
          [
            [
              -123.2080256,
              49.3889556
            ],
            [
              -123.2078702,
              49.3887
            ],
            [
              -123.2076808,
              49.3885205
            ],
            [
              -123.2071612,
              49.3881173
            ],
            [
              -123.2068941,
              49.388007
            ],
            [
              -123.2067614,
              49.3878844
            ],
            [
              -123.2066326,
              49.3877431
            ],
            [
              -123.206557,
              49.3876019
            ],
            [
              -123.2065333,
              49.3874592
            ],
            [
              -123.2066142,
              49.3872133
            ],
            [
              -123.2066466,
              49.3866731
            ],
            [
              -123.2066095,
              49.3864255
            ],
            [
              -123.2064902,
              49.386173
            ],
            [
              -123.2063909,
              49.3858868
            ]
          ]
        ]
      }
    },
    {
      "type": "Feature",
      "id": "cypress-blow-by",
      "properties": {
        "id": "cypress-blow-by",
        "name": "Blow By",
        "resortId": "cypress",
        "difficulty": "black",
        "lengthMeters": 271,
        "grooming": "unknown",
        "source": "OpenStreetMap",
        "metadata": {
          "osmWayIds": [
            "40040480"
          ],
          "osmDifficultyValues": [
            "advanced"
          ],
          "osmGroomingValues": [],
          "osmTags": [
            {
              "name": "Blow By",
              "piste:difficulty": "advanced",
              "piste:type": "downhill"
            }
          ],
          "snapshotDate": "2026-10-03"
        }
      },
      "geometry": {
        "type": "LineString",
        "coordinates": [
          [
            -123.2087038,
            49.3904032
          ],
          [
            -123.2085375,
            49.3905604
          ],
          [
            -123.2078036,
            49.3908288
          ],
          [
            -123.2075834,
            49.3908862
          ],
          [
            -123.2075072,
            49.3909252
          ],
          [
            -123.2074621,
            49.3909754
          ],
          [
            -123.2074555,
            49.3910646
          ],
          [
            -123.2074897,
            49.3912396
          ],
          [
            -123.2075365,
            49.3914068
          ],
          [
            -123.20752,
            49.3915093
          ],
          [
            -123.2074746,
            49.391535
          ],
          [
            -123.2073992,
            49.3915776
          ],
          [
            -123.2071843,
            49.391736
          ],
          [
            -123.2070818,
            49.3919046
          ],
          [
            -123.2070259,
            49.3921176
          ],
          [
            -123.2070862,
            49.3922857
          ]
        ]
      }
    },
    {
      "type": "Feature",
      "id": "cypress-trumpeter",
      "properties": {
        "id": "cypress-trumpeter",
        "name": "Trumpeter",
        "resortId": "cypress",
        "difficulty": "black",
        "lengthMeters": 477,
        "grooming": "unknown",
        "source": "OpenStreetMap",
        "metadata": {
          "osmWayIds": [
            "40040516"
          ],
          "osmDifficultyValues": [
            "advanced"
          ],
          "osmGroomingValues": [],
          "osmTags": [
            {
              "name": "Trumpeter",
              "piste:difficulty": "advanced",
              "piste:type": "downhill"
            }
          ],
          "snapshotDate": "2026-10-03"
        }
      },
      "geometry": {
        "type": "LineString",
        "coordinates": [
          [
            -123.2133796,
            49.3915194
          ],
          [
            -123.2131532,
            49.3914852
          ],
          [
            -123.2130258,
            49.3915942
          ],
          [
            -123.2130195,
            49.3917693
          ],
          [
            -123.2120473,
            49.3925648
          ],
          [
            -123.2115912,
            49.3928622
          ],
          [
            -123.2114562,
            49.3929966
          ],
          [
            -123.2115225,
            49.3933246
          ],
          [
            -123.2111826,
            49.393584
          ],
          [
            -123.2111428,
            49.3935964
          ],
          [
            -123.2103513,
            49.3938432
          ],
          [
            -123.2093754,
            49.3945639
          ]
        ]
      }
    },
    {
      "type": "Feature",
      "id": "cypress-black-on-black",
      "properties": {
        "id": "cypress-black-on-black",
        "name": "Black on Black",
        "resortId": "cypress",
        "difficulty": "double-black",
        "lengthMeters": 467,
        "grooming": "unknown",
        "source": "OpenStreetMap",
        "metadata": {
          "osmWayIds": [
            "40040383"
          ],
          "osmDifficultyValues": [
            "expert"
          ],
          "osmGroomingValues": [],
          "osmTags": [
            {
              "name": "Black on Black",
              "piste:difficulty": "expert",
              "piste:type": "downhill"
            }
          ],
          "snapshotDate": "2026-10-03"
        }
      },
      "geometry": {
        "type": "LineString",
        "coordinates": [
          [
            -123.2062483,
            49.3884621
          ],
          [
            -123.2054847,
            49.3883323
          ],
          [
            -123.2050974,
            49.3883409
          ],
          [
            -123.2043793,
            49.3883216
          ],
          [
            -123.2040781,
            49.3882803
          ],
          [
            -123.2037817,
            49.3881966
          ],
          [
            -123.2033768,
            49.3880489
          ],
          [
            -123.2020686,
            49.3875321
          ],
          [
            -123.2010462,
            49.3873636
          ],
          [
            -123.2006858,
            49.3873352
          ],
          [
            -123.2001724,
            49.3873172
          ]
        ]
      }
    },
    {
      "type": "Feature",
      "id": "cypress-top-gun",
      "properties": {
        "id": "cypress-top-gun",
        "name": "Top Gun",
        "resortId": "cypress",
        "difficulty": "double-black",
        "lengthMeters": 990,
        "grooming": "unknown",
        "source": "OpenStreetMap",
        "metadata": {
          "osmWayIds": [
            "61580888",
            "66403518",
            "1011352661"
          ],
          "osmDifficultyValues": [
            "expert"
          ],
          "osmGroomingValues": [],
          "osmTags": [
            {
              "name": "Top Gun",
              "piste:difficulty": "expert",
              "piste:type": "downhill"
            },
            {
              "name": "Top Gun",
              "piste:difficulty": "expert",
              "piste:type": "downhill"
            },
            {
              "lit": "no",
              "name": "Top Gun",
              "piste:difficulty": "expert",
              "piste:type": "downhill"
            }
          ],
          "snapshotDate": "2026-10-03"
        }
      },
      "geometry": {
        "type": "MultiLineString",
        "coordinates": [
          [
            [
              -123.2050682,
              49.403215
            ],
            [
              -123.2048732,
              49.4028693
            ],
            [
              -123.2045841,
              49.4026489
            ],
            [
              -123.2043561,
              49.4024482
            ],
            [
              -123.2042267,
              49.4022853
            ],
            [
              -123.2042286,
              49.4022013
            ],
            [
              -123.2042985,
              49.4020845
            ]
          ],
          [
            [
              -123.2042985,
              49.4020845
            ],
            [
              -123.2046156,
              49.401846
            ],
            [
              -123.2046709,
              49.401675
            ],
            [
              -123.2046017,
              49.401405
            ],
            [
              -123.2046571,
              49.4012474
            ],
            [
              -123.2044842,
              49.4010293
            ]
          ],
          [
            [
              -123.1993151,
              49.4077292
            ],
            [
              -123.1995175,
              49.4076752
            ],
            [
              -123.1996396,
              49.40759
            ],
            [
              -123.1999033,
              49.407438
            ],
            [
              -123.2002643,
              49.4072146
            ],
            [
              -123.2008854,
              49.4068128
            ],
            [
              -123.2012181,
              49.4066792
            ],
            [
              -123.2015915,
              49.4066309
            ],
            [
              -123.2022392,
              49.4065318
            ],
            [
              -123.2026391,
              49.4063453
            ],
            [
              -123.2028161,
              49.4061507
            ],
            [
              -123.2028886,
              49.4059676
            ],
            [
              -123.2028815,
              49.4057638
            ],
            [
              -123.2029505,
              49.4056176
            ],
            [
              -123.2030355,
              49.4055612
            ],
            [
              -123.2031364,
              49.4055243
            ],
            [
              -123.2033392,
              49.4055169
            ],
            [
              -123.2034248,
              49.4054287
            ],
            [
              -123.2034567,
              49.405317
            ],
            [
              -123.2035345,
              49.4051973
            ],
            [
              -123.2036371,
              49.4050879
            ],
            [
              -123.2037786,
              49.4050727
            ],
            [
              -123.2039061,
              49.4049866
            ],
            [
              -123.2040406,
              49.4048495
            ],
            [
              -123.2043255,
              49.4047413
            ],
            [
              -123.2045096,
              49.4046284
            ],
            [
              -123.2046865,
              49.4044684
            ],
            [
              -123.2047268,
              49.4044035
            ],
            [
              -123.2046937,
              49.4041456
            ],
            [
              -123.2047343,
              49.4039997
            ],
            [
              -123.2049838,
              49.4037188
            ],
            [
              -123.2050033,
              49.4035668
            ],
            [
              -123.2050682,
              49.403215
            ]
          ]
        ]
      }
    },
    {
      "type": "Feature",
      "id": "cypress-gibsons-glades",
      "properties": {
        "id": "cypress-gibsons-glades",
        "name": "Gibsons Glades",
        "resortId": "cypress",
        "difficulty": "double-black",
        "lengthMeters": 1227,
        "grooming": "unknown",
        "source": "OpenStreetMap",
        "metadata": {
          "osmWayIds": [
            "52735125"
          ],
          "osmDifficultyValues": [
            "expert"
          ],
          "osmGroomingValues": [],
          "osmTags": [
            {
              "name": "Gibsons Glades",
              "piste:difficulty": "expert",
              "piste:name": "Gibsons Glades",
              "piste:type": "downhill"
            }
          ],
          "snapshotDate": "2026-10-03"
        }
      },
      "geometry": {
        "type": "LineString",
        "coordinates": [
          [
            -123.1955854,
            49.4050478
          ],
          [
            -123.1963241,
            49.4047319
          ],
          [
            -123.1970147,
            49.4041134
          ],
          [
            -123.1973308,
            49.4040558
          ],
          [
            -123.1978682,
            49.4036655
          ],
          [
            -123.1981581,
            49.403648
          ],
          [
            -123.1984799,
            49.4034193
          ],
          [
            -123.1989427,
            49.4034257
          ],
          [
            -123.1995194,
            49.4032115
          ],
          [
            -123.1999587,
            49.4032304
          ],
          [
            -123.2002577,
            49.4030892
          ],
          [
            -123.2004648,
            49.4031052
          ],
          [
            -123.2009227,
            49.4028572
          ],
          [
            -123.2010761,
            49.4028089
          ],
          [
            -123.2015417,
            49.4023993
          ],
          [
            -123.2007804,
            49.4023179
          ],
          [
            -123.2005736,
            49.4023685
          ],
          [
            -123.2001627,
            49.4026296
          ],
          [
            -123.1995391,
            49.4026579
          ],
          [
            -123.1988953,
            49.402511
          ],
          [
            -123.1978801,
            49.4025293
          ],
          [
            -123.1975151,
            49.4028129
          ],
          [
            -123.1977182,
            49.4030268
          ],
          [
            -123.1967842,
            49.4035757
          ],
          [
            -123.1962782,
            49.4039416
          ],
          [
            -123.1955173,
            49.4043115
          ],
          [
            -123.1950894,
            49.4045785
          ],
          [
            -123.1954257,
            49.404785
          ],
          [
            -123.1955854,
            49.4050478
          ]
        ]
      }
    }
  ]
}
