{
  "type": "FeatureCollection",
  "name": "SlopeSense \u2014 Grouse selected downhill runs",
  "source": "\u00a9 OpenStreetMap contributors",
  "license": "ODbL 1.0",
  "features": [
    {
      "type": "Feature",
      "id": "grouse-the-cut",
      "properties": {
        "id": "grouse-the-cut",
        "name": "The Cut",
        "resortId": "grouse",
        "difficulty": "green",
        "lengthMeters": 1080,
        "grooming": "unknown",
        "source": "OpenStreetMap",
        "metadata": {
          "osmWayIds": [
            "39807046"
          ],
          "osmDifficultyValues": [
            "easy"
          ],
          "osmGroomingValues": [],
          "osmTags": [
            {
              "lit": "yes",
              "name": "The Cut",
              "piste:difficulty": "easy",
              "piste:type": "downhill"
            }
          ],
          "snapshotDate": "2026-10-03"
        }
      },
      "geometry": {
        "type": "LineString",
        "coordinates": [
          [
            -123.0805484,
            49.380175
          ],
          [
            -123.0803142,
            49.3801988
          ],
          [
            -123.0800406,
            49.3801639
          ],
          [
            -123.0798238,
            49.3800528
          ],
          [
            -123.0798059,
            49.3799686
          ],
          [
            -123.0797187,
            49.37956
          ],
          [
            -123.0796776,
            49.3793706
          ],
          [
            -123.0796619,
            49.3791765
          ],
          [
            -123.0795146,
            49.3784264
          ],
          [
            -123.079172,
            49.3763163
          ],
          [
            -123.078564,
            49.3737499
          ],
          [
            -123.0781387,
            49.3729024
          ],
          [
            -123.0782784,
            49.3721229
          ],
          [
            -123.078361,
            49.3713675
          ],
          [
            -123.0784971,
            49.3711697
          ],
          [
            -123.0785648,
            49.3711905
          ],
          [
            -123.078756,
            49.3712493
          ]
        ]
      }
    },
    {
      "type": "Feature",
      "id": "grouse-teddy-bear-lane",
      "properties": {
        "id": "grouse-teddy-bear-lane",
        "name": "Teddy Bear Lane",
        "resortId": "grouse",
        "difficulty": "green",
        "lengthMeters": 248,
        "grooming": "unknown",
        "source": "OpenStreetMap",
        "metadata": {
          "osmWayIds": [
            "392390966",
            "392390967",
            "480136962",
            "877414833"
          ],
          "osmDifficultyValues": [
            "easy"
          ],
          "osmGroomingValues": [],
          "osmTags": [
            {
              "lit": "yes",
              "name": "Teddy Bear Lane",
              "piste:difficulty": "easy",
              "piste:type": "downhill"
            },
            {
              "lit": "yes",
              "name": "Teddy Bear Lane",
              "piste:difficulty": "easy",
              "piste:type": "downhill"
            },
            {
              "name": "Teddy Bear Lane",
              "piste:difficulty": "easy",
              "piste:type": "downhill"
            },
            {
              "lit": "yes",
              "name": "Teddy Bear Lane",
              "piste:difficulty": "easy",
              "piste:type": "downhill"
            }
          ],
          "snapshotDate": "2026-10-03"
        }
      },
      "geometry": {
        "type": "MultiLineString",
        "coordinates": [
          [
            [
              -123.078647,
              49.3830534
            ],
            [
              -123.0787001,
              49.3830815
            ],
            [
              -123.0787977,
              49.3830912
            ],
            [
              -123.0789214,
              49.3830857
            ],
            [
              -123.0790497,
              49.3830587
            ],
            [
              -123.0790986,
              49.38303
            ],
            [
              -123.0792021,
              49.3829642
            ],
            [
              -123.0792766,
              49.3829051
            ],
            [
              -123.0793226,
              49.3828636
            ]
          ],
          [
            [
              -123.0793226,
              49.3828636
            ],
            [
              -123.0794306,
              49.3827991
            ],
            [
              -123.079505,
              49.3827546
            ],
            [
              -123.0797844,
              49.3826462
            ],
            [
              -123.0799866,
              49.3825665
            ],
            [
              -123.0800721,
              49.3825206
            ],
            [
              -123.0801031,
              49.382444
            ],
            [
              -123.0801523,
              49.3824118
            ],
            [
              -123.0804527,
              49.382218
            ],
            [
              -123.0805371,
              49.3821299
            ]
          ],
          [
            [
              -123.0781812,
              49.3830027
            ],
            [
              -123.0782645,
              49.3829952
            ],
            [
              -123.0784127,
              49.383012
            ],
            [
              -123.078647,
              49.3830534
            ]
          ],
          [
            [
              -123.0777704,
              49.383067
            ],
            [
              -123.0779886,
              49.3830169
            ],
            [
              -123.0781812,
              49.3830027
            ]
          ]
        ]
      }
    },
    {
      "type": "Feature",
      "id": "grouse-paradise",
      "properties": {
        "id": "grouse-paradise",
        "name": "Paradise",
        "resortId": "grouse",
        "difficulty": "green",
        "lengthMeters": 209,
        "grooming": "groomed",
        "source": "OpenStreetMap",
        "metadata": {
          "osmWayIds": [
            "1149430054"
          ],
          "osmDifficultyValues": [
            "easy"
          ],
          "osmGroomingValues": [
            "classic"
          ],
          "osmTags": [
            {
              "name": "Paradise",
              "piste:difficulty": "easy",
              "piste:grooming": "classic",
              "piste:lit": "yes",
              "piste:type": "downhill"
            }
          ],
          "snapshotDate": "2026-10-03"
        }
      },
      "geometry": {
        "type": "LineString",
        "coordinates": [
          [
            -123.0811885,
            49.3800216
          ],
          [
            -123.0811295,
            49.3800408
          ],
          [
            -123.0809444,
            49.3801639
          ],
          [
            -123.0808988,
            49.3802215
          ],
          [
            -123.0805407,
            49.3806895
          ],
          [
            -123.0804268,
            49.3809016
          ],
          [
            -123.0804229,
            49.3809119
          ],
          [
            -123.0803463,
            49.3811129
          ],
          [
            -123.0803315,
            49.3811863
          ],
          [
            -123.0802967,
            49.3813111
          ],
          [
            -123.0802819,
            49.3813818
          ],
          [
            -123.0802859,
            49.3814779
          ],
          [
            -123.0802851,
            49.3814868
          ],
          [
            -123.0802766,
            49.3815827
          ],
          [
            -123.080298,
            49.3816412
          ],
          [
            -123.0803329,
            49.3816691
          ],
          [
            -123.080389,
            49.3817214
          ]
        ]
      }
    },
    {
      "type": "Feature",
      "id": "grouse-paper-trail",
      "properties": {
        "id": "grouse-paper-trail",
        "name": "Paper Trail",
        "resortId": "grouse",
        "difficulty": "blue",
        "lengthMeters": 860,
        "grooming": "unknown",
        "source": "OpenStreetMap",
        "metadata": {
          "osmWayIds": [
            "39807047"
          ],
          "osmDifficultyValues": [
            "intermediate"
          ],
          "osmGroomingValues": [],
          "osmTags": [
            {
              "lit": "no",
              "name": "Paper Trail",
              "piste:difficulty": "intermediate",
              "piste:type": "downhill"
            }
          ],
          "snapshotDate": "2026-10-03"
        }
      },
      "geometry": {
        "type": "LineString",
        "coordinates": [
          [
            -123.0820444,
            49.3789078
          ],
          [
            -123.0815364,
            49.3783604
          ],
          [
            -123.08112,
            49.3779794
          ],
          [
            -123.0810778,
            49.3779401
          ],
          [
            -123.0808819,
            49.3772009
          ],
          [
            -123.0806137,
            49.3752659
          ],
          [
            -123.0799757,
            49.3740466
          ],
          [
            -123.0797213,
            49.3729394
          ],
          [
            -123.0796159,
            49.3724088
          ],
          [
            -123.0790902,
            49.3722411
          ],
          [
            -123.0788068,
            49.3721242
          ],
          [
            -123.0782784,
            49.3721229
          ]
        ]
      }
    },
    {
      "type": "Feature",
      "id": "grouse-skyline",
      "properties": {
        "id": "grouse-skyline",
        "name": "Skyline",
        "resortId": "grouse",
        "difficulty": "blue",
        "lengthMeters": 1141,
        "grooming": "unknown",
        "source": "OpenStreetMap",
        "metadata": {
          "osmWayIds": [
            "39807049",
            "62646571"
          ],
          "osmDifficultyValues": [
            "intermediate"
          ],
          "osmGroomingValues": [],
          "osmTags": [
            {
              "lit": "no",
              "name": "Skyline",
              "piste:difficulty": "intermediate",
              "piste:type": "downhill"
            },
            {
              "lit": "no",
              "name": "Skyline",
              "piste:difficulty": "intermediate",
              "piste:type": "downhill"
            }
          ],
          "snapshotDate": "2026-10-03"
        }
      },
      "geometry": {
        "type": "MultiLineString",
        "coordinates": [
          [
            [
              -123.0759714,
              49.3805698
            ],
            [
              -123.0758308,
              49.3802477
            ],
            [
              -123.0757649,
              49.3798775
            ],
            [
              -123.0757724,
              49.3797952
            ],
            [
              -123.075821,
              49.379317
            ],
            [
              -123.0757332,
              49.3791635
            ],
            [
              -123.0755375,
              49.3788211
            ],
            [
              -123.0753693,
              49.3784937
            ],
            [
              -123.0752562,
              49.3782538
            ],
            [
              -123.0753048,
              49.3775864
            ],
            [
              -123.0753127,
              49.3774788
            ],
            [
              -123.0752785,
              49.3771491
            ],
            [
              -123.0752551,
              49.3769235
            ],
            [
              -123.0752255,
              49.3763976
            ]
          ],
          [
            [
              -123.0752255,
              49.3763976
            ],
            [
              -123.0757083,
              49.3749139
            ],
            [
              -123.0760758,
              49.3741204
            ],
            [
              -123.0768105,
              49.3729763
            ],
            [
              -123.0773475,
              49.3720352
            ],
            [
              -123.0782365,
              49.3713014
            ],
            [
              -123.0784769,
              49.3711029
            ],
            [
              -123.0785868,
              49.3711564
            ],
            [
              -123.0786246,
              49.3711775
            ],
            [
              -123.078756,
              49.3712493
            ]
          ]
        ]
      }
    },
    {
      "type": "Feature",
      "id": "grouse-expo",
      "properties": {
        "id": "grouse-expo",
        "name": "Expo",
        "resortId": "grouse",
        "difficulty": "blue",
        "lengthMeters": 954,
        "grooming": "unknown",
        "source": "OpenStreetMap",
        "metadata": {
          "osmWayIds": [
            "39834751"
          ],
          "osmDifficultyValues": [
            "intermediate"
          ],
          "osmGroomingValues": [],
          "osmTags": [
            {
              "lit": "yes",
              "name": "Expo",
              "piste:difficulty": "intermediate",
              "piste:type": "downhill"
            }
          ],
          "snapshotDate": "2026-10-03"
        }
      },
      "geometry": {
        "type": "LineString",
        "coordinates": [
          [
            -123.0791592,
            49.3808594
          ],
          [
            -123.0787186,
            49.3807966
          ],
          [
            -123.0782527,
            49.3807303
          ],
          [
            -123.0780477,
            49.3807185
          ],
          [
            -123.0770043,
            49.3806388
          ],
          [
            -123.0765045,
            49.3806128
          ],
          [
            -123.0759714,
            49.3805698
          ],
          [
            -123.0754577,
            49.3805283
          ],
          [
            -123.0743246,
            49.380169
          ],
          [
            -123.0736381,
            49.3798151
          ],
          [
            -123.0735542,
            49.3797717
          ],
          [
            -123.0733976,
            49.3796854
          ],
          [
            -123.0732026,
            49.379578
          ],
          [
            -123.0730404,
            49.3795067
          ],
          [
            -123.0723174,
            49.3790205
          ],
          [
            -123.0719181,
            49.378802
          ],
          [
            -123.0717288,
            49.378802
          ],
          [
            -123.0710117,
            49.3791191
          ],
          [
            -123.0697598,
            49.3797885
          ],
          [
            -123.0694855,
            49.3800759
          ],
          [
            -123.0692651,
            49.3803076
          ],
          [
            -123.0691555,
            49.3804226
          ],
          [
            -123.0689001,
            49.3806627
          ],
          [
            -123.0687626,
            49.380792
          ],
          [
            -123.0687159,
            49.3808359
          ],
          [
            -123.068719,
            49.3810821
          ]
        ]
      }
    },
    {
      "type": "Feature",
      "id": "grouse-heaven-s-sake",
      "properties": {
        "id": "grouse-heaven-s-sake",
        "name": "Heaven's Sake",
        "resortId": "grouse",
        "difficulty": "blue",
        "lengthMeters": 772,
        "grooming": "unknown",
        "source": "OpenStreetMap",
        "metadata": {
          "osmWayIds": [
            "39838239"
          ],
          "osmDifficultyValues": [
            "intermediate"
          ],
          "osmGroomingValues": [],
          "osmTags": [
            {
              "lit": "yes",
              "name": "Heaven's Sake",
              "oneway": "no",
              "piste:difficulty": "intermediate",
              "piste:oneway": "yes",
              "piste:type": "downhill"
            }
          ],
          "snapshotDate": "2026-10-03"
        }
      },
      "geometry": {
        "type": "LineString",
        "coordinates": [
          [
            -123.0762872,
            49.3863074
          ],
          [
            -123.0762135,
            49.3863723
          ],
          [
            -123.0761662,
            49.3864487
          ],
          [
            -123.076064,
            49.3866651
          ],
          [
            -123.0759114,
            49.3868419
          ],
          [
            -123.0757654,
            49.3871382
          ],
          [
            -123.0757305,
            49.3872082
          ],
          [
            -123.0756811,
            49.3872704
          ],
          [
            -123.0755738,
            49.3873502
          ],
          [
            -123.0753767,
            49.3874149
          ],
          [
            -123.0752028,
            49.3874506
          ],
          [
            -123.0750202,
            49.3874677
          ],
          [
            -123.0749011,
            49.3874572
          ],
          [
            -123.07487,
            49.3874552
          ],
          [
            -123.0747613,
            49.3873985
          ],
          [
            -123.0746646,
            49.3873253
          ],
          [
            -123.074641,
            49.3872524
          ],
          [
            -123.0746119,
            49.3871853
          ],
          [
            -123.0746206,
            49.3871212
          ],
          [
            -123.074707,
            49.3869234
          ],
          [
            -123.0747788,
            49.3867743
          ],
          [
            -123.0747748,
            49.3866037
          ],
          [
            -123.0747508,
            49.3864649
          ],
          [
            -123.0747444,
            49.3864277
          ],
          [
            -123.0747107,
            49.3860827
          ],
          [
            -123.0747044,
            49.385989
          ],
          [
            -123.0747224,
            49.3859133
          ],
          [
            -123.0747616,
            49.3857487
          ],
          [
            -123.0748836,
            49.385519
          ],
          [
            -123.0749265,
            49.3854382
          ],
          [
            -123.0750674,
            49.3852081
          ],
          [
            -123.0751968,
            49.3851043
          ],
          [
            -123.075329,
            49.3850055
          ],
          [
            -123.075457,
            49.3849061
          ],
          [
            -123.0755892,
            49.3847771
          ],
          [
            -123.0756375,
            49.384719
          ],
          [
            -123.0756848,
            49.3846189
          ],
          [
            -123.075696,
            49.3845158
          ],
          [
            -123.0757225,
            49.3843794
          ],
          [
            -123.075735,
            49.3842784
          ],
          [
            -123.0757502,
            49.3842178
          ],
          [
            -123.0757989,
            49.3840959
          ],
          [
            -123.0758803,
            49.3839887
          ],
          [
            -123.076015,
            49.3839038
          ],
          [
            -123.0762338,
            49.383792
          ],
          [
            -123.0764752,
            49.3836496
          ],
          [
            -123.0767162,
            49.3835051
          ],
          [
            -123.0767839,
            49.38346
          ],
          [
            -123.0770474,
            49.3832835
          ],
          [
            -123.0771864,
            49.3832043
          ],
          [
            -123.0773638,
            49.3831361
          ],
          [
            -123.077487,
            49.3830894
          ],
          [
            -123.0776051,
            49.3830744
          ],
          [
            -123.0777704,
            49.383067
          ]
        ]
      }
    },
    {
      "type": "Feature",
      "id": "grouse-hades",
      "properties": {
        "id": "grouse-hades",
        "name": "Hades",
        "resortId": "grouse",
        "difficulty": "black",
        "lengthMeters": 612,
        "grooming": "unknown",
        "source": "OpenStreetMap",
        "metadata": {
          "osmWayIds": [
            "39838267"
          ],
          "osmDifficultyValues": [
            "advanced"
          ],
          "osmGroomingValues": [],
          "osmTags": [
            {
              "lit": "no",
              "name": "Hades",
              "piste:difficulty": "advanced",
              "piste:type": "downhill"
            }
          ],
          "snapshotDate": "2026-10-03"
        }
      },
      "geometry": {
        "type": "LineString",
        "coordinates": [
          [
            -123.075935,
            49.3832466
          ],
          [
            -123.0758294,
            49.3832284
          ],
          [
            -123.0757248,
            49.3832284
          ],
          [
            -123.0755511,
            49.383238
          ],
          [
            -123.0752143,
            49.3832165
          ],
          [
            -123.0748118,
            49.3831907
          ],
          [
            -123.0739419,
            49.3832001
          ],
          [
            -123.0734701,
            49.3830889
          ],
          [
            -123.0728982,
            49.3829541
          ],
          [
            -123.0721067,
            49.3826316
          ],
          [
            -123.0706077,
            49.3820266
          ],
          [
            -123.0696218,
            49.3814492
          ],
          [
            -123.0693157,
            49.3812155
          ],
          [
            -123.0689763,
            49.3809559
          ],
          [
            -123.0689535,
            49.380938
          ],
          [
            -123.0687159,
            49.3808359
          ]
        ]
      }
    },
    {
      "type": "Feature",
      "id": "grouse-inferno",
      "properties": {
        "id": "grouse-inferno",
        "name": "Inferno",
        "resortId": "grouse",
        "difficulty": "black",
        "lengthMeters": 679,
        "grooming": "unknown",
        "source": "OpenStreetMap",
        "metadata": {
          "osmWayIds": [
            "39838268"
          ],
          "osmDifficultyValues": [
            "advanced"
          ],
          "osmGroomingValues": [],
          "osmTags": [
            {
              "lit": "no",
              "name": "Inferno",
              "piste:difficulty": "advanced",
              "piste:type": "downhill"
            }
          ],
          "snapshotDate": "2026-10-03"
        }
      },
      "geometry": {
        "type": "LineString",
        "coordinates": [
          [
            -123.0755892,
            49.3847771
          ],
          [
            -123.0744783,
            49.3844022
          ],
          [
            -123.0740854,
            49.3842352
          ],
          [
            -123.073275,
            49.383891
          ],
          [
            -123.0722266,
            49.3833812
          ],
          [
            -123.0716474,
            49.3830995
          ],
          [
            -123.071057,
            49.38285
          ],
          [
            -123.0694065,
            49.3817961
          ],
          [
            -123.0692972,
            49.3817266
          ],
          [
            -123.0690854,
            49.3815911
          ],
          [
            -123.0690086,
            49.3815202
          ],
          [
            -123.0686168,
            49.3811558
          ],
          [
            -123.0685983,
            49.381132
          ],
          [
            -123.0685825,
            49.3810944
          ],
          [
            -123.0685627,
            49.381046
          ],
          [
            -123.0686063,
            49.3810224
          ],
          [
            -123.068719,
            49.3810821
          ]
        ]
      }
    },
    {
      "type": "Feature",
      "id": "grouse-outer-limits",
      "properties": {
        "id": "grouse-outer-limits",
        "name": "Outer Limits",
        "resortId": "grouse",
        "difficulty": "black",
        "lengthMeters": 507,
        "grooming": "unknown",
        "source": "OpenStreetMap",
        "metadata": {
          "osmWayIds": [
            "39838281",
            "1149430056"
          ],
          "osmDifficultyValues": [
            "advanced"
          ],
          "osmGroomingValues": [],
          "osmTags": [
            {
              "lit": "no",
              "name": "Outer Limits",
              "piste:difficulty": "advanced",
              "piste:type": "downhill"
            },
            {
              "lit": "no",
              "name": "Outer Limits",
              "piste:difficulty": "advanced",
              "piste:type": "downhill"
            }
          ],
          "snapshotDate": "2026-10-03"
        }
      },
      "geometry": {
        "type": "MultiLineString",
        "coordinates": [
          [
            [
              -123.0698505,
              49.3849799
            ],
            [
              -123.069798,
              49.3849014
            ],
            [
              -123.069634,
              49.3846521
            ],
            [
              -123.069227,
              49.384409
            ],
            [
              -123.069253,
              49.3841829
            ],
            [
              -123.0696282,
              49.3834672
            ],
            [
              -123.069665,
              49.3832263
            ],
            [
              -123.0697491,
              49.3831029
            ]
          ],
          [
            [
              -123.0723472,
              49.3860678
            ],
            [
              -123.0717384,
              49.3861246
            ],
            [
              -123.071028,
              49.3861909
            ],
            [
              -123.0708137,
              49.386181
            ],
            [
              -123.0707306,
              49.3861722
            ],
            [
              -123.0706608,
              49.3861426
            ],
            [
              -123.0706152,
              49.3860972
            ],
            [
              -123.0705938,
              49.3860675
            ],
            [
              -123.070567,
              49.3860046
            ],
            [
              -123.0705401,
              49.3859208
            ],
            [
              -123.0705428,
              49.3858056
            ],
            [
              -123.0705079,
              49.3856222
            ],
            [
              -123.0704811,
              49.385493
            ],
            [
              -123.0704516,
              49.385411
            ],
            [
              -123.0703819,
              49.3853778
            ],
            [
              -123.0702719,
              49.3853551
            ],
            [
              -123.0701539,
              49.3853149
            ],
            [
              -123.0700627,
              49.3852416
            ],
            [
              -123.0700332,
              49.3851595
            ],
            [
              -123.0698505,
              49.3849799
            ]
          ]
        ]
      }
    },
    {
      "type": "Feature",
      "id": "grouse-peak-glades",
      "properties": {
        "id": "grouse-peak-glades",
        "name": "Peak Glades",
        "resortId": "grouse",
        "difficulty": "double-black",
        "lengthMeters": 150,
        "grooming": "unknown",
        "source": "OpenStreetMap",
        "metadata": {
          "osmWayIds": [
            "859477226"
          ],
          "osmDifficultyValues": [
            "expert"
          ],
          "osmGroomingValues": [],
          "osmTags": [
            {
              "name": "Peak Glades",
              "piste:difficulty": "expert",
              "piste:type": "downhill"
            }
          ],
          "snapshotDate": "2026-10-03"
        }
      },
      "geometry": {
        "type": "LineString",
        "coordinates": [
          [
            -123.0761459,
            49.3860736
          ],
          [
            -123.076162,
            49.3859854
          ],
          [
            -123.0761802,
            49.3859419
          ],
          [
            -123.0761212,
            49.3854666
          ],
          [
            -123.0755825,
            49.3851722
          ],
          [
            -123.075457,
            49.3849061
          ]
        ]
      }
    },
    {
      "type": "Feature",
      "id": "grouse-devil-s-advocate",
      "properties": {
        "id": "grouse-devil-s-advocate",
        "name": "Devil's Advocate",
        "resortId": "grouse",
        "difficulty": "double-black",
        "lengthMeters": 284,
        "grooming": "unknown",
        "source": "OpenStreetMap",
        "metadata": {
          "osmWayIds": [
            "1149430055"
          ],
          "osmDifficultyValues": [
            "expert"
          ],
          "osmGroomingValues": [],
          "osmTags": [
            {
              "lit": "no",
              "name": "Devil's Advocate",
              "piste:difficulty": "expert",
              "piste:type": "downhill"
            }
          ],
          "snapshotDate": "2026-10-03"
        }
      },
      "geometry": {
        "type": "LineString",
        "coordinates": [
          [
            -123.0761288,
            49.3862477
          ],
          [
            -123.0761513,
            49.3861216
          ],
          [
            -123.0761527,
            49.3861007
          ],
          [
            -123.0761459,
            49.3860736
          ],
          [
            -123.0761151,
            49.3860439
          ],
          [
            -123.0760561,
            49.3860361
          ],
          [
            -123.0760212,
            49.3860343
          ],
          [
            -123.0759139,
            49.3860474
          ],
          [
            -123.0758791,
            49.3860387
          ],
          [
            -123.0752192,
            49.385548
          ],
          [
            -123.0752005,
            49.3855157
          ],
          [
            -123.0751857,
            49.3854616
          ],
          [
            -123.0751419,
            49.3853906
          ],
          [
            -123.0750674,
            49.3852081
          ],
          [
            -123.074959,
            49.3851202
          ],
          [
            -123.0743188,
            49.3846009
          ],
          [
            -123.0740854,
            49.3842352
          ]
        ]
      }
    },
    {
      "type": "Feature",
      "id": "grouse-peak-cliffs",
      "properties": {
        "id": "grouse-peak-cliffs",
        "name": "Peak Cliffs",
        "resortId": "grouse",
        "difficulty": "double-black",
        "lengthMeters": 158,
        "grooming": "unknown",
        "source": "OpenStreetMap",
        "metadata": {
          "osmWayIds": [
            "1352837825"
          ],
          "osmDifficultyValues": [
            "expert"
          ],
          "osmGroomingValues": [],
          "osmTags": [
            {
              "name": "Peak Cliffs",
              "piste:difficulty": "expert",
              "piste:type": "downhill"
            }
          ],
          "snapshotDate": "2026-10-03"
        }
      },
      "geometry": {
        "type": "LineString",
        "coordinates": [
          [
            -123.0764852,
            49.3860274
          ],
          [
            -123.076449,
            49.385968
          ],
          [
            -123.0764195,
            49.3859051
          ],
          [
            -123.0764034,
            49.3858527
          ],
          [
            -123.0764008,
            49.3858021
          ],
          [
            -123.0764034,
            49.3857567
          ],
          [
            -123.0764008,
            49.3857095
          ],
          [
            -123.07639,
            49.3855349
          ],
          [
            -123.0763954,
            49.3854686
          ],
          [
            -123.0765134,
            49.3853062
          ],
          [
            -123.0765992,
            49.3851805
          ],
          [
            -123.0766207,
            49.3851089
          ],
          [
            -123.0766556,
            49.3850635
          ],
          [
            -123.0766878,
            49.3850111
          ],
          [
            -123.076736,
            49.38495
          ],
          [
            -123.0767655,
            49.3848697
          ],
          [
            -123.0767736,
            49.3847894
          ],
          [
            -123.0768037,
            49.3846645
          ]
        ]
      }
    }
  ]
}
